[Satellite]
VERSION=1.1
NAME=CELESTIS-02
NICKNAME=CELESTIS-02
TLE1=1 25160U 98007D   17186.23544517 -.00000096  00000-0  14708-4 0  9992
TLE2=2 25160 107.9506 230.1372 0063588 327.3185  72.3475 14.21466069  5902
